ONEWEB-0545             
1 54647U 22166F   26003.24801052 -.00001170  00000+0 -28655-2 0  9994
2 54647  87.9221 276.8858 0002042  76.8821 283.2540 13.21833255149710
ONEWEB-0580             
1 54648U 22166G   26003.44877760  .00001071  00000+0  25606-2 0  9997
2 54648  87.9229 276.8455 0002220  81.7963 278.3422 13.21822786149780
ONEWEB-0582             
1 54649U 22166H   26003.26445785 -.00000223  00000+0 -57202-3 0  9994
2 54649  87.9228 276.8751 0002052  81.8628 278.2739 13.21825422149736
ONEWEB-0583             
1 54650U 22166J   26003.27597556  .00000070  00000+0  13875-3 0  9997
2 54650  87.9224 276.8972 0001681  75.2512 284.8808 13.21828152149749
ONEWEB-0584             
1 54651U 22166K   26003.44712054  .00000107  00000+0  22760-3 0  9993
2 54651  87.9225 276.8499 0001881  82.0163 278.1184 13.21827344149751
ONEWEB-0585             
1 54652U 22166L   26003.47180823  .00000166  00000+0  36948-3 0  9998
2 54652  87.9225 276.8291 0001496  74.0626 286.0673 13.21827862149766
ONEWEB-0586             
1 54653U 22166M   26003.48497701  .00000058  00000+0  10834-3 0  9992
2 54653  87.9228 276.8514 0001767  76.5012 283.6319 13.21827150149765
ONEWEB-0587             
1 54654U 22166N   26003.26774413 -.00000261  00000+0 -66234-3 0  9990
2 54654  87.9235 276.8534 0001181  72.5979 287.5284 13.21825653149898
